{
  "norad_id": 57936,
  "name": "STARLINK-30716",
  "history": [
    {
      "epoch": "2026-03-28T20:33:01.865376",
      "apogee_km": 475.8794573677951,
      "perigee_km": 474.5619678811199,
      "latitude_deg": 11.9367555916533,
      "longitude_deg": 55.80207264004275,
      "semi_major_axis_km": 6853.357712624457,
      "eccentricity": 9.612e-05,
      "inclination_deg": 53.1582,
      "raan_deg": 295.402,
      "arg_perigee_deg": 96.2629,
      "mean_anomaly_deg": 263.8481,
      "mean_motion_rev_day": 15.3019811
    }
  ]
}